[{"OBJECT_NAME":"STARLINK-6320","OBJECT_ID":"2023-099J","EPOCH":"2025-11-10T23:29:16.864224","MEAN_MOTION":15.0253652,"ECCENTRICITY":0.00011413,"INCLINATION":43.0022,"RA_OF_ASC_NODE":173.6319,"ARG_OF_PERICENTER":277.679,"MEAN_ANOMALY":82.3923,"EPHEMERIS_TYPE":0,"CLASSIFICATION_TYPE":"U","NORAD_CAT_ID":57336,"ELEMENT_SET_NO":999,"REV_AT_EPOCH":12826,"BSTAR":4.8733116e-5,"MEAN_MOTION_DOT":4.55e-6,"MEAN_MOTION_DDOT":0},{"OBJECT_NAME":"STARLINK-6322","OBJECT_ID":"2023-099K","EPOCH":"2025-11-11T00:23:37.512960","MEAN_MOTION":15.02534098,"ECCENTRICITY":0.00011927,"INCLINATION":43.0021,"RA_OF_ASC_NODE":173.9299,"ARG_OF_PERICENTER":268.3109,"MEAN_ANOMALY":91.7597,"EPHEMERIS_TYPE":0,"CLASSIFICATION_TYPE":"U","NORAD_CAT_ID":57337,"ELEMENT_SET_NO":999,"REV_AT_EPOCH":12826,"BSTAR":4.3529005e-5,"MEAN_MOTION_DOT":3.84e-6,"MEAN_MOTION_DDOT":0},{"OBJECT_NAME":"STARLINK-6374","OBJECT_ID":"2023-099L","EPOCH":"2025-11-11T00:17:13.805376","MEAN_MOTION":15.0253472,"ECCENTRICITY":0.00011983,"INCLINATION":43.0011,"RA_OF_ASC_NODE":173.8932,"ARG_OF_PERICENTER":262.8513,"MEAN_ANOMALY":97.2193,"EPHEMERIS_TYPE":0,"CLASSIFICATION_TYPE":"U","NORAD_CAT_ID":57338,"ELEMENT_SET_NO":999,"REV_AT_EPOCH":12826,"BSTAR":5.2701637e-5,"MEAN_MOTION_DOT":5.08e-6,"MEAN_MOTION_DDOT":0},{"OBJECT_NAME":"STARLINK-6332","OBJECT_ID":"2023-099M","EPOCH":"2025-11-11T00:26:49.079040","MEAN_MOTION":15.0254092,"ECCENTRICITY":0.00010033,"INCLINATION":43.0022,"RA_OF_ASC_NODE":173.9458,"ARG_OF_PERICENTER":270.8078,"MEAN_ANOMALY":89.2649,"EPHEMERIS_TYPE":0,"CLASSIFICATION_TYPE":"U","NORAD_CAT_ID":57339,"ELEMENT_SET_NO":999,"REV_AT_EPOCH":12826,"BSTAR":0.00010850296,"MEAN_MOTION_DOT":1.263e-5,"MEAN_MOTION_DDOT":0},{"OBJECT_NAME":"STARLINK-6321","OBJECT_ID":"2023-099N","EPOCH":"2025-11-10T23:59:38.864832","MEAN_MOTION":15.02540765,"ECCENTRICITY":0.00012031,"INCLINATION":43.0029,"RA_OF_ASC_NODE":173.8036,"ARG_OF_PERICENTER":272.378,"MEAN_ANOMALY":87.6925,"EPHEMERIS_TYPE":0,"CLASSIFICATION_TYPE":"U","NORAD_CAT_ID":57340,"ELEMENT_SET_NO":999,"REV_AT_EPOCH":12826,"BSTAR":0.00016324703,"MEAN_MOTION_DOT":2.002e-5,"MEAN_MOTION_DDOT":0},{"OBJECT_NAME":"STARLINK-6377","OBJECT_ID":"2023-099P","EPOCH":"2025-11-11T00:07:38.367552","MEAN_MOTION":15.02538785,"ECCENTRICITY":0.00011415,"INCLINATION":43.0035,"RA_OF_ASC_NODE":173.8443,"ARG_OF_PERICENTER":275.1744,"MEAN_ANOMALY":84.8968,"EPHEMERIS_TYPE":0,"CLASSIFICATION_TYPE":"U","NORAD_CAT_ID":57341,"ELEMENT_SET_NO":999,"REV_AT_EPOCH":12826,"BSTAR":7.9472303e-5,"MEAN_MOTION_DOT":8.7e-6,"MEAN_MOTION_DDOT":0},{"OBJECT_NAME":"STARLINK-6375","OBJECT_ID":"2023-099Q","EPOCH":"2025-11-10T23:35:40.615008","MEAN_MOTION":15.02533847,"ECCENTRICITY":0.00012737,"INCLINATION":43.0033,"RA_OF_ASC_NODE":173.6796,"ARG_OF_PERICENTER":266.6404,"MEAN_ANOMALY":93.4293,"EPHEMERIS_TYPE":0,"CLASSIFICATION_TYPE":"U","NORAD_CAT_ID":57342,"ELEMENT_SET_NO":999,"REV_AT_EPOCH":12826,"BSTAR":7.4531971e-5,"MEAN_MOTION_DOT":8.03e-6,"MEAN_MOTION_DDOT":0},{"OBJECT_NAME":"STARLINK-6379","OBJECT_ID":"2023-099R","EPOCH":"2025-11-10T16:04:13.372608","MEAN_MOTION":15.02516519,"ECCENTRICITY":0.00014345,"INCLINATION":43.0045,"RA_OF_ASC_NODE":175.6275,"ARG_OF_PERICENTER":261.4007,"MEAN_ANOMALY":98.6673,"EPHEMERIS_TYPE":0,"CLASSIFICATION_TYPE":"U","NORAD_CAT_ID":57343,"ELEMENT_SET_NO":999,"REV_AT_EPOCH":12821,"BSTAR":9.5259921e-5,"MEAN_MOTION_DOT":1.083e-5,"MEAN_MOTION_DDOT":0},{"OBJECT_NAME":"STARLINK-6380","OBJECT_ID":"2023-099S","EPOCH":"2025-11-10T23:50:03.442560","MEAN_MOTION":15.02539848,"ECCENTRICITY":0.00011125,"INCLINATION":43.0032,"RA_OF_ASC_NODE":173.7528,"ARG_OF_PERICENTER":268.1263,"MEAN_ANOMALY":91.9452,"EPHEMERIS_TYPE":0,"CLASSIFICATION_TYPE":"U","NORAD_CAT_ID":57344,"ELEMENT_SET_NO":999,"REV_AT_EPOCH":12826,"BSTAR":9.0200874e-5,"MEAN_MOTION_DOT":1.015e-5,"MEAN_MOTION_DDOT":0},{"OBJECT_NAME":"STARLINK-6373","OBJECT_ID":"2023-099T","EPOCH":"2025-11-10T23:54:51.544224","MEAN_MOTION":15.02543023,"ECCENTRICITY":0.00013805,"INCLINATION":43.0021,"RA_OF_ASC_NODE":173.7799,"ARG_OF_PERICENTER":248.4237,"MEAN_ANOMALY":111.6458,"EPHEMERIS_TYPE":0,"CLASSIFICATION_TYPE":"U","NORAD_CAT_ID":57345,"ELEMENT_SET_NO":999,"REV_AT_EPOCH":12826,"BSTAR":-5.9449403e-5,"MEAN_MOTION_DOT":-1.007e-5,"MEAN_MOTION_DDOT":0},{"OBJECT_NAME":"STARLINK-6359","OBJECT_ID":"2023-099U","EPOCH":"2025-11-10T23:26:05.597952","MEAN_MOTION":15.0254466,"ECCENTRICITY":9.138e-5,"INCLINATION":43.002,"RA_OF_ASC_NODE":173.6261,"ARG_OF_PERICENTER":295.0366,"MEAN_ANOMALY":65.0381,"EPHEMERIS_TYPE":0,"CLASSIFICATION_TYPE":"U","NORAD_CAT_ID":57346,"ELEMENT_SET_NO":999,"REV_AT_EPOCH":12826,"BSTAR":-3.6369023e-5,"MEAN_MOTION_DOT":-6.95e-6,"MEAN_MOTION_DDOT":0},{"OBJECT_NAME":"STARLINK-6378","OBJECT_ID":"2023-099V","EPOCH":"2025-11-10T23:43:40.704384","MEAN_MOTION":15.02532278,"ECCENTRICITY":6.493e-5,"INCLINATION":43.0007,"RA_OF_ASC_NODE":173.7207,"ARG_OF_PERICENTER":296.7264,"MEAN_ANOMALY":63.3512,"EPHEMERIS_TYPE":0,"CLASSIFICATION_TYPE":"U","NORAD_CAT_ID":57347,"ELEMENT_SET_NO":999,"REV_AT_EPOCH":12826,"BSTAR":6.7614048e-5,"MEAN_MOTION_DOT":7.1e-6,"MEAN_MOTION_DDOT":0},{"OBJECT_NAME":"STARLINK-6372","OBJECT_ID":"2023-099W","EPOCH":"2025-11-11T00:53:49.429824","MEAN_MOTION":15.02533617,"ECCENTRICITY":0.00013062,"INCLINATION":43.0039,"RA_OF_ASC_NODE":173.2271,"ARG_OF_PERICENTER":263.7426,"MEAN_ANOMALY":96.3268,"EPHEMERIS_TYPE":0,"CLASSIFICATION_TYPE":"U","NORAD_CAT_ID":57348,"ELEMENT_SET_NO":999,"REV_AT_EPOCH":12827,"BSTAR":4.1927428e-5,"MEAN_MOTION_DOT":3.63e-6,"MEAN_MOTION_DDOT":0},{"OBJECT_NAME":"STARLINK-6376","OBJECT_ID":"2023-099X","EPOCH":"2025-11-11T00:57:01.046880","MEAN_MOTION":15.02531342,"ECCENTRICITY":0.00012104,"INCLINATION":43.0042,"RA_OF_ASC_NODE":173.2426,"ARG_OF_PERICENTER":269.8477,"MEAN_ANOMALY":90.2227,"EPHEMERIS_TYPE":0,"CLASSIFICATION_TYPE":"U","NORAD_CAT_ID":57349,"ELEMENT_SET_NO":999,"REV_AT_EPOCH":12899,"BSTAR":0.00011508597,"MEAN_MOTION_DOT":1.351e-5,"MEAN_MOTION_DDOT":0},{"OBJECT_NAME":"STARLINK-6362","OBJECT_ID":"2023-099Y","EPOCH":"2025-11-10T23:29:48.922944","MEAN_MOTION":15.02535714,"ECCENTRICITY":0.00011852,"INCLINATION":43.0036,"RA_OF_ASC_NODE":161.4838,"ARG_OF_PERICENTER":273.4205,"MEAN_ANOMALY":86.6502,"EPHEMERIS_TYPE":0,"CLASSIFICATION_TYPE":"U","NORAD_CAT_ID":57350,"ELEMENT_SET_NO":999,"REV_AT_EPOCH":12840,"BSTAR":4.5025926e-5,"MEAN_MOTION_DOT":4.05e-6,"MEAN_MOTION_DDOT":0},{"OBJECT_NAME":"STARLINK-6331","OBJECT_ID":"2023-099Z","EPOCH":"2025-11-11T00:52:13.175904","MEAN_MOTION":15.02534695,"ECCENTRICITY":0.00012176,"INCLINATION":43.0047,"RA_OF_ASC_NODE":173.2171,"ARG_OF_PERICENTER":264.728,"MEAN_ANOMALY":95.3423,"EPHEMERIS_TYPE":0,"CLASSIFICATION_TYPE":"U","NORAD_CAT_ID":57351,"ELEMENT_SET_NO":999,"REV_AT_EPOCH":12827,"BSTAR":5.8741736e-5,"MEAN_MOTION_DOT":5.9e-6,"MEAN_MOTION_DDOT":0}]
