STARLINK-6320           
1 57336U 23099J   25314.97866741  .00000455  00000+0  48733-4 0  9992
2 57336  43.0022 173.6319 0001141 277.6790  82.3923 15.02536520128267
STARLINK-6322           
1 57337U 23099K   25315.01640640  .00000384  00000+0  43529-4 0  9996
2 57337  43.0021 173.9299 0001192 268.3109  91.7597 15.02534098128263
STARLINK-6374           
1 57338U 23099L   25315.01196534  .00000508  00000+0  52702-4 0  9996
2 57338  43.0011 173.8932 0001198 262.8513  97.2193 15.02534720128265
STARLINK-6332           
1 57339U 23099M   25315.01862360  .00001263  00000+0  10850-3 0  9990
2 57339  43.0022 173.9458 0001003 270.8078  89.2649 15.02540920128268
STARLINK-6321           
1 57340U 23099N   25314.99975538  .00002002  00000+0  16325-3 0  9995
2 57340  43.0029 173.8036 0001203 272.3780  87.6925 15.02540765128263
STARLINK-6377           
1 57341U 23099P   25315.00530518  .00000870  00000+0  79472-4 0  9998
2 57341  43.0035 173.8443 0001141 275.1744  84.8968 15.02538785128260
STARLINK-6375           
1 57342U 23099Q   25314.98310897  .00000803  00000+0  74532-4 0  9999
2 57342  43.0033 173.6796 0001273 266.6404  93.4293 15.02533847128263
STARLINK-6379           
1 57343U 23099R   25314.66959922  .00001083  00000+0  95260-4 0  9995
2 57343  43.0045 175.6275 0001434 261.4007  98.6673 15.02516519128213
STARLINK-6380           
1 57344U 23099S   25314.99309540  .00001015  00000+0  90201-4 0  9992
2 57344  43.0032 173.7528 0001112 268.1263  91.9452 15.02539848128267
STARLINK-6373           
1 57345U 23099T   25314.99642991 -.00001007  00000+0 -59449-4 0  9995
2 57345  43.0021 173.7799 0001380 248.4237 111.6458 15.02543023128261
STARLINK-6359           
1 57346U 23099U   25314.97645368 -.00000695  00000+0 -36369-4 0  9993
2 57346  43.0020 173.6261 0000913 295.0366  65.0381 15.02544660128261
STARLINK-6378           
1 57347U 23099V   25314.98866556  .00000710  00000+0  67614-4 0  9992
2 57347  43.0007 173.7207 0000649 296.7264  63.3512 15.02532278128268
STARLINK-6372           
1 57348U 23099W   25315.03737766  .00000363  00000+0  41927-4 0  9993
2 57348  43.0039 173.2271 0001306 263.7426  96.3268 15.02533617128278
STARLINK-6376           
1 57349U 23099X   25315.03959545  .00001351  00000+0  11509-3 0  9995
2 57349  43.0042 173.2426 0001210 269.8477  90.2227 15.02531342128992
STARLINK-6362           
1 57350U 23099Y   25314.97903846  .00000405  00000+0  45026-4 0  9993
2 57350  43.0036 161.4838 0001185 273.4205  86.6502 15.02535714128402
STARLINK-6331           
1 57351U 23099Z   25315.03626361  .00000590  00000+0  58742-4 0  9990
2 57351  43.0047 173.2171 0001217 264.7280  95.3423 15.02534695128279
